{
    "week": 295,
    "satellites": [
        {
            "Name": "GSAT0208 (GALILEO 11)",
            "Line1": "1 41175U 15079B   24338.48471262  .00000047  00000+0  00000+0 0  9993",
            "Line2": "2 41175  55.5060 116.6599 0001376 356.8902   3.0690  1.70474345 55630",
            "SatelliteNumber": "41175",
            "Classification": "U",
            "LaunchYear": "15",
            "LaunchNumber": "079",
            "PieceOfLaunch": "B",
            "EpochYear": "24",
            "EpochDay": 338.48471262,
            "FirstDerivativeMeanMotion": 4.7e-07,
            "SecondDerivativeMeanMotion": "00000+0",
            "BSTAR": "00000+0",
            "SetNumber": "999",
            "Inclination": 55.506,
            "RAAN": 116.6599,
            "Eccentricity": 0.0001376,
            "ArgumentOfPerigee": 356.8902,
            "MeanAnomaly": 3.069,
            "MeanMotion": 1.70474345,
            "RevolutionNumber": "5563"
        },
        {
            "Name": "GSAT0211 (GALILEO 14)",
            "Line1": "1 41549U 16030A   24336.84831341  .00000032  00000+0  00000+0 0  9996",
            "Line2": "2 41549  55.2922 237.1646 0003720 358.6723   1.4074  1.70473044 53087",
            "SatelliteNumber": "41549",
            "Classification": "U",
            "LaunchYear": "16",
            "LaunchNumber": "030",
            "PieceOfLaunch": "A",
            "EpochYear": "24",
            "EpochDay": 336.84831341,
            "FirstDerivativeMeanMotion": 3.2e-07,
            "SecondDerivativeMeanMotion": "00000+0",
            "BSTAR": "00000+0",
            "SetNumber": "999",
            "Inclination": 55.2922,
            "RAAN": 237.1646,
            "Eccentricity": 0.000372,
            "ArgumentOfPerigee": 358.6723,
            "MeanAnomaly": 1.4074,
            "MeanMotion": 1.70473044,
            "RevolutionNumber": "5308"
        },
        {
            "Name": "GSAT0210 (GALILEO 13)",
            "Line1": "1 41550U 16030B   24339.45263245  .00000037  00000+0  00000+0 0  9995",
            "Line2": "2 41550  55.2902 237.0913 0001028 243.6655 116.4113  1.70473386 53102",
            "SatelliteNumber": "41550",
            "Classification": "U",
            "LaunchYear": "16",
            "LaunchNumber": "030",
            "PieceOfLaunch": "B",
            "EpochYear": "24",
            "EpochDay": 339.45263245,
            "FirstDerivativeMeanMotion": 3.7e-07,
            "SecondDerivativeMeanMotion": "00000+0",
            "BSTAR": "00000+0",
            "SetNumber": "999",
            "Inclination": 55.2902,
            "RAAN": 237.0913,
            "Eccentricity": 0.0001028,
            "ArgumentOfPerigee": 243.6655,
            "MeanAnomaly": 116.4113,
            "MeanMotion": 1.70473386,
            "RevolutionNumber": "5310"
        },
        {
            "Name": "GSAT0207 (GALILEO 15)",
            "Line1": "1 41859U 16069A   24336.79860915  .00000047  00000+0  00000+0 0  9991",
            "Line2": "2 41859  55.1723 116.6691 0001842 309.3343  50.6089  1.70474452 49816",
            "SatelliteNumber": "41859",
            "Classification": "U",
            "LaunchYear": "16",
            "LaunchNumber": "069",
            "PieceOfLaunch": "A",
            "EpochYear": "24",
            "EpochDay": 336.79860915,
            "FirstDerivativeMeanMotion": 4.7e-07,
            "SecondDerivativeMeanMotion": "00000+0",
            "BSTAR": "00000+0",
            "SetNumber": "999",
            "Inclination": 55.1723,
            "RAAN": 116.6691,
            "Eccentricity": 0.0001842,
            "ArgumentOfPerigee": 309.3343,
            "MeanAnomaly": 50.6089,
            "MeanMotion": 1.70474452,
            "RevolutionNumber": "4981"
        },
        {
            "Name": "GSAT0212 (GALILEO 16)",
            "Line1": "1 41860U 16069B   24337.23929895  .00000047  00000+0  00000+0 0  9996",
            "Line2": "2 41860  55.1706 116.6530 0001592  29.8620 330.1061  1.70474621 50079",
            "SatelliteNumber": "41860",
            "Classification": "U",
            "LaunchYear": "16",
            "LaunchNumber": "069",
            "PieceOfLaunch": "B",
            "EpochYear": "24",
            "EpochDay": 337.23929895,
            "FirstDerivativeMeanMotion": 4.7e-07,
            "SecondDerivativeMeanMotion": "00000+0",
            "BSTAR": "00000+0",
            "SetNumber": "999",
            "Inclination": 55.1706,
            "RAAN": 116.653,
            "Eccentricity": 0.0001592,
            "ArgumentOfPerigee": 29.862,
            "MeanAnomaly": 330.1061,
            "MeanMotion": 1.70474621,
            "RevolutionNumber": "5007"
        },
        {
            "Name": "GSAT0213 (GALILEO 17)",
            "Line1": "1 41861U 16069C   24337.02099558  .00000047  00000+0  00000+0 0  9998",
            "Line2": "2 41861  55.1724 116.6661 0002158 265.2894  94.6452  1.70474923 50063",
            "SatelliteNumber": "41861",
            "Classification": "U",
            "LaunchYear": "16",
            "LaunchNumber": "069",
            "PieceOfLaunch": "C",
            "EpochYear": "24",
            "EpochDay": 337.02099558,
            "FirstDerivativeMeanMotion": 4.7e-07,
            "SecondDerivativeMeanMotion": "00000+0",
            "BSTAR": "00000+0",
            "SetNumber": "999",
            "Inclination": 55.1724,
            "RAAN": 116.6661,
            "Eccentricity": 0.0002158,
            "ArgumentOfPerigee": 265.2894,
            "MeanAnomaly": 94.6452,
            "MeanMotion": 1.70474923,
            "RevolutionNumber": "5006"
        },
        {
            "Name": "GSAT0214 (GALILEO 18)",
            "Line1": "1 41862U 16069D   24337.75301077  .00000046  00000+0  00000+0 0  9990",
            "Line2": "2 41862  55.1713 116.6391 0001224 260.0342  99.9112  1.70474717 50079",
            "SatelliteNumber": "41862",
            "Classification": "U",
            "LaunchYear": "16",
            "LaunchNumber": "069",
            "PieceOfLaunch": "D",
            "EpochYear": "24",
            "EpochDay": 337.75301077,
            "FirstDerivativeMeanMotion": 4.6e-07,
            "SecondDerivativeMeanMotion": "00000+0",
            "BSTAR": "00000+0",
            "SetNumber": "999",
            "Inclination": 55.1713,
            "RAAN": 116.6391,
            "Eccentricity": 0.0001224,
            "ArgumentOfPerigee": 260.0342,
            "MeanAnomaly": 99.9112,
            "MeanMotion": 1.70474717,
            "RevolutionNumber": "5007"
        },
        {
            "Name": "GSAT0215 (GALILEO 19)",
            "Line1": "1 43055U 17079A   24338.24298413  .00000037  00000+0  00000+0 0  9992",
            "Line2": "2 43055  55.2686 236.9457 0001460 323.3261  36.7506  1.70473781 43426",
            "SatelliteNumber": "43055",
            "Classification": "U",
            "LaunchYear": "17",
            "LaunchNumber": "079",
            "PieceOfLaunch": "A",
            "EpochYear": "24",
            "EpochDay": 338.24298413,
            "FirstDerivativeMeanMotion": 3.7e-07,
            "SecondDerivativeMeanMotion": "00000+0",
            "BSTAR": "00000+0",
            "SetNumber": "999",
            "Inclination": 55.2686,
            "RAAN": 236.9457,
            "Eccentricity": 0.000146,
            "ArgumentOfPerigee": 323.3261,
            "MeanAnomaly": 36.7506,
            "MeanMotion": 1.70473781,
            "RevolutionNumber": "4342"
        },
        {
            "Name": "GSAT0216 (GALILEO 20)",
            "Line1": "1 43056U 17079B   24339.12114073  .00000038  00000+0  00000+0 0  9991",
            "Line2": "2 43056  55.2686 236.9215 0002845 309.9012  50.1616  1.70473889 43455",
            "SatelliteNumber": "43056",
            "Classification": "U",
            "LaunchYear": "17",
            "LaunchNumber": "079",
            "PieceOfLaunch": "B",
            "EpochYear": "24",
            "EpochDay": 339.12114073,
            "FirstDerivativeMeanMotion": 3.8e-07,
            "SecondDerivativeMeanMotion": "00000+0",
            "BSTAR": "00000+0",
            "SetNumber": "999",
            "Inclination": 55.2686,
            "RAAN": 236.9215,
            "Eccentricity": 0.0002845,
            "ArgumentOfPerigee": 309.9012,
            "MeanAnomaly": 50.1616,
            "MeanMotion": 1.70473889,
            "RevolutionNumber": "4345"
        },
        {
            "Name": "GSAT0217 (GALILEO 21)",
            "Line1": "1 43057U 17079C   24337.58193681  .00000035  00000+0  00000+0 0  9999",
            "Line2": "2 43057  55.2675 236.9623 0002815 338.0995  21.9731  1.70473736 43418",
            "SatelliteNumber": "43057",
            "Classification": "U",
            "LaunchYear": "17",
            "LaunchNumber": "079",
            "PieceOfLaunch": "C",
            "EpochYear": "24",
            "EpochDay": 337.58193681,
            "FirstDerivativeMeanMotion": 3.5e-07,
            "SecondDerivativeMeanMotion": "00000+0",
            "BSTAR": "00000+0",
            "SetNumber": "999",
            "Inclination": 55.2675,
            "RAAN": 236.9623,
            "Eccentricity": 0.0002815,
            "ArgumentOfPerigee": 338.0995,
            "MeanAnomaly": 21.9731,
            "MeanMotion": 1.70473736,
            "RevolutionNumber": "4341"
        }
    ]
}